OBJECT_NAME,OBJECT_ID,EPOCH,MEAN_MOTION,ECCENTRICITY,INCLINATION,RA_OF_ASC_NODE,ARG_OF_PERICENTER,MEAN_ANOMALY,EPHEMERIS_TYPE,CLASSIFICATION_TYPE,NORAD_CAT_ID,ELEMENT_SET_NO,REV_AT_EPOCH,BSTAR,MEAN_MOTION_DOT,MEAN_MOTION_DDOT
KUZGTU 1 (RS47S),2023-091AV,2026-06-04T23:57:09.600192,15.29567914,.00121871,97.5064,220.3564,135.6281,224.5938,0,U,57217,999,16251,.50929644E-3,.14562E-3,0
SONATE-2,2024-043Q,2026-06-03T23:22:02.781120,15.57700323,.00063261,97.5529,304.5700,241.9322,118.1294,0,U,59112,999,12583,.52778692E-3,.39146E-3,0
MESAT1,2024-125G,2026-06-05T01:35:57.380640,15.61861021,.00083274,97.2304,13.2841,252.2678,107.7671,0,U,60209,999,10767,.59627953E-3,.51928E-3,0
OOV-CUBE (TUBSAT-30),2024-128F,2026-06-05T00:16:51.782016,15.02717688,.00461395,61.9954,268.0264,131.0618,229.4475,0,U,60240,999,10428,.24868725E-3,.32E-4,0
COLIBRI-S (RS67S),2024-199M,2026-06-05T07:01:58.503072,15.47210254,.0007005,97.3007,30.0422,334.2168,25.8732,0,U,61746,999,13557,.41180659E-3,.20895E-3,0
HORS 3 (RS81S),2024-199U,2026-06-05T05:53:34.786464,15.54118449,.00048363,97.2989,31.8549,344.5777,15.5328,0,U,61753,999,13570,.51157121E-3,.33217E-3,0
HORS 4 (RS82S),2024-199V,2026-06-05T05:47:08.086848,15.58533645,.00036167,97.2935,32.9773,337.2570,22.8526,0,U,61754,999,13578,.56964034E-3,.43599E-3,0
ARCTICSAT 1 (RS74S),2024-199AD,2026-06-05T01:02:22.230240,16.02262718,.00061877,97.2851,39.2907,198.3612,161.7446,0,U,61762,999,13617,.12270297E-2,.70668E-2,.23827113E-3
SIT-2086,2024-199AF,2026-06-05T06:34:10.507872,15.52230889,.00048453,97.2947,32.4016,317.6351,42.4527,0,U,61764,999,13258,.55154292E-3,.33463E-3,0
HYPERVIEW 1G (RS66S),2024-199AP,2026-06-05T05:45:26.375040,15.72736056,.00021521,97.2889,35.3818,315.2711,44.8379,0,U,61772,999,13279,.80357684E-3,.109193E-2,0
ALTAIR (RS65S),2024-199AW,2026-06-05T06:17:49.454880,15.36771918,.00124015,97.3039,25.6930,357.7691,2.3496,0,U,61779,999,13528,.28985455E-3,.10361E-3,0
ASRTU-1 (AO-123),2024-199AY,2026-06-05T05:45:38.861568,15.35495187,.00136083,97.3010,25.0189,359.6015,0.5216,0,U,61781,999,13209,.2282227E-3,.7814E-4,0
SAMSAT-IONOSPHERE (RS75S),2024-199BB,2026-06-05T07:10:40.448928,15.56548605,.00067144,97.2957,31.9151,337.3256,22.7702,0,U,61784,999,13571,.58074422E-3,.41297E-3,0
RTU MIREA 1 (RS51S),2024-199BC,2026-06-05T06:50:03.236352,15.59753867,.00061833,97.2947,32.6730,331.8909,28.2014,0,U,61785,999,13261,.59149839E-3,.47459E-3,0
TEVEL2-4,2025-052D,2026-06-04T15:51:50.035392,15.34152369,.00042884,97.3926,52.0362,127.7510,232.4122,0,U,63213,999,6819,.65897715E-3,.21744E-3,0
TEVEL2-5,2025-052E,2026-06-05T06:24:45.804384,15.34006552,.00041287,97.3910,52.5934,127.0520,233.1101,0,U,63214,999,6828,.51277606E-3,.16814E-3,0
TEVEL2-6,2025-052F,2026-06-04T16:36:41.612256,15.33948162,.0004351,97.3914,52.0022,129.5253,230.6375,0,U,63215,999,6819,.61616E-3,.20192E-3,0
TEVEL2-1,2025-052H,2026-06-04T15:38:22.630848,15.33430587,.00039028,97.3886,51.6013,137.4262,222.7283,0,U,63217,999,6817,.62394043E-3,.20115E-3,0
TEVEL2-3,2025-052J,2026-06-04T15:31:17.786496,15.33483588,.00039786,97.3888,51.6166,138.3190,221.8356,0,U,63218,999,6817,.62480469E-3,.20177E-3,0
TEVEL2-2,2025-052K,2026-06-04T15:38:55.495680,15.33439815,.00039362,97.3887,51.6034,139.0495,221.1044,0,U,63219,999,6817,.63617993E-3,.20518E-3,0
TEVEL2-9,2025-052AD,2026-06-05T06:24:09.371232,15.31514886,.00066504,97.3943,51.6191,165.5205,194.6228,0,U,63237,999,6820,.50636334E-3,.15357E-3,0
TEVEL2-7,2025-052AE,2026-06-04T15:38:47.453568,15.31212802,.00065817,97.3951,50.9267,168.2020,191.9377,0,U,63238,999,6810,.59587575E-3,.17921E-3,0
TEVEL2-8,2025-052AF,2026-06-04T15:50:28.971456,15.31195553,.00065639,97.3951,50.9120,168.5625,191.5767,0,U,63239,999,6810,.59749177E-3,.17961E-3,0
INNOSAT 16 (RS92S7),2025-155C,2026-06-05T06:14:08.708928,15.25324723,.0009157,97.4562,123.4274,219.5402,140.5169,0,U,64878,999,7885,.23936108E-3,.5964E-4,0
GEOSCAN 6 (RS92S6),2025-155D,2026-06-05T06:41:27.562272,15.29916706,.00067465,97.4555,124.7872,204.4934,155.5987,0,U,64879,999,7894,.32448059E-3,.933E-4,0
GEOSCAN 1 (RS92S1),2025-155E,2026-06-05T06:51:33.157152,15.30494598,.00066734,97.4552,124.9321,204.1247,155.9682,0,U,64880,999,7895,.33802812E-3,.9899E-4,0
239ALFEROV (RS61S),2025-155F,2026-06-05T06:31:54.382944,15.32606325,.00062825,97.4554,125.4404,200.5660,159.5330,0,U,64881,999,7898,.41529838E-3,.13012E-3,0
GEOSCAN 2 (RS92S2),2025-155Q,2026-06-05T06:45:29.734560,15.30766796,.00065382,97.4551,125.0756,188.1839,171.9296,0,U,64890,999,7896,.33979498E-3,.10035E-3,0
GEOSCAN 5 (RS92S5),2025-155R,2026-06-05T06:19:39.811872,15.32925642,.00049659,97.4545,125.5648,203.6028,156.4986,0,U,64891,999,7899,.44525108E-3,.14096E-3,0
GEOSCAN 4 (RS92S4),2025-155S,2026-06-05T05:58:35.078304,15.33072944,.00050089,97.4549,125.5950,204.5236,155.5768,0,U,64892,999,7899,.43671933E-3,.13888E-3,0
