KUZGTU 1 (RS47S)        
1 57217U 23091AV  26155.99802778  .00014562  00000+0  50930-3 0  9993
2 57217  97.5064 220.3564 0012187 135.6281 224.5938 15.29567914162519
SONATE-2                
1 59112U 24043Q   26154.97364330  .00039146  00000+0  52779-3 0  9999
2 59112  97.5529 304.5700 0006326 241.9322 118.1294 15.57700323125834
MESAT1                  
1 60209U 24125G   26156.06663635  .00051928  00000+0  59628-3 0  9993
2 60209  97.2304  13.2841 0008327 252.2678 107.7671 15.61861021107676
OOV-CUBE (TUBSAT-30)    
1 60240U 24128F   26156.01171044  .00003200  00000+0  24869-3 0  9993
2 60240  61.9954 268.0264 0046139 131.0618 229.4475 15.02717688104282
COLIBRI-S (RS67S)       
1 61746U 24199M   26156.29303823  .00020895  00000+0  41181-3 0  9990
2 61746  97.3007  30.0422 0007005 334.2168  25.8732 15.47210254135571
HORS 3 (RS81S)          
1 61753U 24199U   26156.24554151  .00033217  00000+0  51157-3 0  9991
2 61753  97.2989  31.8549 0004836 344.5777  15.5328 15.54118449135708
HORS 4 (RS82S)          
1 61754U 24199V   26156.24106582  .00043599  00000+0  56964-3 0  9998
2 61754  97.2935  32.9773 0003616 337.2570  22.8526 15.58533645135788
ARCTICSAT 1 (RS74S)     
1 61762U 24199AD  26156.04331285  .00706680  23827-3  12270-2 0  9999
2 61762  97.2851  39.2907 0006187 198.3612 161.7446 16.02262718136170
SIT-2086                
1 61764U 24199AF  26156.27373273  .00033463  00000+0  55154-3 0  9994
2 61764  97.2947  32.4016 0004845 317.6351  42.4527 15.52230889132583
HYPERVIEW 1G (RS66S)    
1 61772U 24199AP  26156.23988860  .00109193  00000+0  80358-3 0  9991
2 61772  97.2889  35.3818 0002152 315.2711  44.8379 15.72736056132795
ALTAIR (RS65S)          
1 61779U 24199AW  26156.26237795  .00010361  00000+0  28985-3 0  9991
2 61779  97.3039  25.6930 0012401 357.7691   2.3496 15.36771918135285
ASRTU-1 (AO-123)        
1 61781U 24199AY  26156.24003312  .00007814  00000+0  22822-3 0  9991
2 61781  97.3010  25.0189 0013608 359.6015   0.5216 15.35495187132094
SAMSAT-IONOSPHERE (RS7*)
1 61784U 24199BB  26156.29907927  .00041297  00000+0  58074-3 0  9995
2 61784  97.2957  31.9151 0006714 337.3256  22.7702 15.56548605135716
RTU MIREA 1 (RS51S)     
1 61785U 24199BC  26156.28475968  .00047459  00000+0  59150-3 0  9992
2 61785  97.2947  32.6730 0006183 331.8909  28.2014 15.59753867132615
TEVEL2-4                
1 63213U 25052D   26155.66099578  .00021744  00000+0  65898-3 0  9994
2 63213  97.3926  52.0362 0004288 127.7510 232.4122 15.34152369 68195
TEVEL2-5                
1 63214U 25052E   26156.26719681  .00016814  00000+0  51278-3 0  9995
2 63214  97.3910  52.5934 0004128 127.0520 233.1101 15.34006552 68283
TEVEL2-6                
1 63215U 25052F   26155.69214829  .00020192  00000+0  61616-3 0  9997
2 63215  97.3914  52.0022 0004351 129.5253 230.6375 15.33948162 68195
TEVEL2-1                
1 63217U 25052H   26155.65165082  .00020115  00000+0  62394-3 0  9990
2 63217  97.3886  51.6013 0003902 137.4262 222.7283 15.33430587 68174
TEVEL2-3                
1 63218U 25052J   26155.64673364  .00020177  00000+0  62480-3 0  9991
2 63218  97.3888  51.6166 0003978 138.3190 221.8356 15.33483588 68179
TEVEL2-2                
1 63219U 25052K   26155.65203120  .00020518  00000+0  63618-3 0  9995
2 63219  97.3887  51.6034 0003936 139.0495 221.1044 15.33439815 68174
TEVEL2-9                
1 63237U 25052AD  26156.26677513  .00015357  00000+0  50636-3 0  9995
2 63237  97.3943  51.6191 0006650 165.5205 194.6228 15.31514886 68202
TEVEL2-7                
1 63238U 25052AE  26155.65193812  .00017921  00000+0  59588-3 0  9997
2 63238  97.3951  50.9267 0006581 168.2020 191.9377 15.31212802 68103
TEVEL2-8                
1 63239U 25052AF  26155.66005754  .00017961  00000+0  59749-3 0  9999
2 63239  97.3951  50.9120 0006563 168.5625 191.5767 15.31195553 68108
INNOSAT 16 (RS92S7)     
1 64878U 25155C   26156.25982302  .00005964  00000+0  23936-3 0  9991
2 64878  97.4562 123.4274 0009157 219.5402 140.5169 15.25324723 78854
GEOSCAN 6 (RS92S6)      
1 64879U 25155D   26156.27879123  .00009330  00000+0  32448-3 0  9999
2 64879  97.4555 124.7872 0006746 204.4934 155.5987 15.29916706 78945
GEOSCAN 1 (RS92S1)      
1 64880U 25155E   26156.28580043  .00009899  00000+0  33803-3 0  9998
2 64880  97.4552 124.9321 0006673 204.1247 155.9682 15.30494598 78957
239ALFEROV (RS61S)      
1 64881U 25155F   26156.27215721  .00013012  00000+0  41530-3 0  9994
2 64881  97.4554 125.4404 0006282 200.5660 159.5330 15.32606325 78981
GEOSCAN 2 (RS92S2)      
1 64890U 25155Q   26156.28159415  .00010035  00000+0  33979-3 0  9992
2 64890  97.4551 125.0756 0006538 188.1839 171.9296 15.30766796 78961
GEOSCAN 5 (RS92S5)      
1 64891U 25155R   26156.26365523  .00014096  00000+0  44525-3 0  9990
2 64891  97.4545 125.5648 0004965 203.6028 156.4986 15.32925642 78991
GEOSCAN 4 (RS92S4)      
1 64892U 25155S   26156.24901711  .00013888  00000+0  43672-3 0  9994
2 64892  97.4549 125.5950 0005008 204.5236 155.5768 15.33072944 78999
